[{"OBJECT_NAME":"STARLINK-5184","OBJECT_ID":"2022-136AN","EPOCH":"2026-03-09T22:01:13.684800","MEAN_MOTION":15.08842116,"ECCENTRICITY":0.00014087,"INCLINATION":53.2177,"RA_OF_ASC_NODE":332.7397,"ARG_OF_PERICENTER":95.8315,"MEAN_ANOMALY":264.2837,"EPHEMERIS_TYPE":0,"CLASSIFICATION_TYPE":"U","NORAD_CAT_ID":54087,"ELEMENT_SET_NO":999,"REV_AT_EPOCH":18702,"BSTAR":0.00044432551,"MEAN_MOTION_DOT":6.791e-5,"MEAN_MOTION_DDOT":0},{"OBJECT_NAME":"OBJECT B","OBJECT_ID":"2025-180B","EPOCH":"2026-03-02T07:51:01.178208","MEAN_MOTION":15.14359033,"ECCENTRICITY":0.0014719,"INCLINATION":97.5099,"RA_OF_ASC_NODE":189.7404,"ARG_OF_PERICENTER":334.9723,"MEAN_ANOMALY":25.0794,"EPHEMERIS_TYPE":0,"CLASSIFICATION_TYPE":"U","NORAD_CAT_ID":65260,"ELEMENT_SET_NO":999,"REV_AT_EPOCH":2948,"BSTAR":0.00032386063,"MEAN_MOTION_DOT":5.888e-5,"MEAN_MOTION_DDOT":0}]
